KUIPER-00008            
1 63724U 25088A   26008.17955615  .00007721  00000+0  65290-3 0  9991
2 63724  51.8915   2.7781 0007454 257.7025 102.3111 14.98879355 38982
KUIPER-00009            
1 63725U 25088B   26008.00609993 -.00001162  00000+0 -12289-3 0  9994
2 63725  51.9035  14.9667 0010311 258.1436 101.8370 14.79970814 38793
KUIPER-00010            
1 63726U 25088C   26008.19374127 -.00030457  00000+0 -42755-2 0  9992
2 63726  51.9021 350.5247 0008020 299.9590  60.0574 14.76931473 38775
KUIPER-00011            
1 63727U 25088D   26008.15867861  .00002116  00000+0  30631-3 0  9991
2 63727  51.9025 358.3208 0012034 279.0512  80.9088 14.79960472 38793
KUIPER-00012            
1 63728U 25088E   26008.18527528  .00004149  00000+0  61890-3 0  9997
2 63728  51.9030 342.1844 0008020 288.0155  71.9932 14.76603818 38973
KUIPER-00013            
1 63729U 25088F   26008.07256207  .00002834  00000+0  39983-3 0  9996
2 63729  51.9026  16.1370 0005980 179.9022 180.1942 14.80020857 38597
KUIPER-00014            
1 63730U 25088G   26008.07079183  .00002626  00000+0  37284-3 0  9995
2 63730  51.9025  17.1142 0004680 271.2279  88.8147 14.79991141 38392
KUIPER-00015            
1 63731U 25088H   26008.07271965  .00004904  00000+0  63681-3 0  9999
2 63731  51.9010  27.6922 0009723 232.1706 127.8378 14.82190271 38707
